{
    "links": {
        "self": "http://www.neowsapp.com/rest/v1/neo/3740846?api_key=iIulBulltgU6a56xZRHN4H3l9WmuAYTsLGpBGhQ2"
    },
    "id": "3740846",
    "neo_reference_id": "3740846",
    "name": "(2016 AU193)",
    "designation": "2016 AU193",
    "nasa_jpl_url": "http://ssd.jpl.nasa.gov/sbdb.cgi?sstr=3740846",
    "absolute_magnitude_h": 25.3,
    "estimated_diameter": {
        "kilometers": {
            "estimated_diameter_min": 0.0231502122,
            "estimated_diameter_max": 0.0517654482
        },
        "meters": {
            "estimated_diameter_min": 23.150212221,
            "estimated_diameter_max": 51.7654482198
        },
        "miles": {
            "estimated_diameter_min": 0.0143848705,
            "estimated_diameter_max": 0.0321655483
        },
        "feet": {
            "estimated_diameter_min": 75.9521422633,
            "estimated_diameter_max": 169.8341531374
        }
    },
    "is_potentially_hazardous_asteroid": false,
    "close_approach_data": [
        {
            "close_approach_date": "1953-01-24",
            "close_approach_date_full": "1953-Jan-24 00:24",
            "epoch_date_close_approach": -534468960000,
            "relative_velocity": {
                "kilometers_per_second": "22.5636707278",
                "kilometers_per_hour": "81229.2146200922",
                "miles_per_hour": "50472.6750510234"
            },
            "miss_distance": {
                "astronomical": "0.1018499962",
                "lunar": "39.6196485218",
                "kilometers": "15236542.491028094",
                "miles": "9467548.4878679372"
            },
            "orbiting_body": "Venus"
        },
        {
            "close_approach_date": "2015-12-31",
            "close_approach_date_full": "2015-Dec-31 08:59",
            "epoch_date_close_approach": 1451552340000,
            "relative_velocity": {
                "kilometers_per_second": "21.9224424588",
                "kilometers_per_hour": "78920.7928515907",
                "miles_per_hour": "49038.3115360342"
            },
            "miss_distance": {
                "astronomical": "0.0211851817",
                "lunar": "8.2410356813",
                "kilometers": "3169258.057882979",
                "miles": "1969285.6401799502"
            },
            "orbiting_body": "Earth"
        }
    ],
    "orbital_data": {
        "orbit_id": "3",
        "orbit_determination_date": "2017-04-06 08:29:02",
        "first_observation_date": "2016-01-03",
        "last_observation_date": "2016-01-07",
        "data_arc_in_days": 4,
        "observations_used": 14,
        "orbit_uncertainty": "9",
        "minimum_orbit_intersection": ".0107808",
        "jupiter_tisserand_invariant": "3.862",
        "epoch_osculation": "2457392.5",
        "eccentricity": ".6679702948440349",
        "semi_major_axis": "1.719431352808005",
        "inclination": "12.31971541071488",
        "ascending_node_longitude": "100.9423966841987",
        "orbital_period": "823.5229170206147",
        "perihelion_distance": ".570902285108764",
        "perihelion_argument": "264.1995919143751",
        "aphelion_distance": "2.867960420507245",
        "perihelion_time": "2457340.232169320348",
        "mean_anomaly": "22.84868903557629",
        "mean_motion": ".4371463046862463",
        "equinox": "J2000",
        "orbit_class": {
            "orbit_class_type": "APO",
            "orbit_class_description": "Near-Earth asteroid orbits which cross the Earth’s orbit similar to that of 1862 Apollo",
            "orbit_class_range": "a (semi-major axis) > 1.0 AU; q (perihelion) < 1.017 AU"
        }
    },
    "is_sentry_object": false
}